*******************************************************************************
Ephemeris / WWW_USER Mon Mar 24 07:52:52 2025 Pasadena, USA      / Horizons    
*******************************************************************************
Target body name: (2018 TS1)                      {source: JPL#6}
Center body name: Earth (399)                     {source: DE441}
Center-site name: Mauna Kea
*******************************************************************************
Start time      : A.D. 2018-Sep-04 04:44:00.0000 UT      
Stop  time      : A.D. 2018-Sep-04 15:57:00.0000 UT      
Step-size       : 1 minutes
*******************************************************************************
Target pole/equ : undefined
Target radii    : undefined                                                    
Center geodetic : 204.5278, 19.8260847, 4.21024   {E-lon(deg),Lat(deg),Alt(km)}
Center cylindric: 204.5278, 6006.35451, 2151.0229 {E-lon(deg),Dxy(km),Dz(km)}
Center pole/equ : ITRF93                          {East-longitude positive}
Center radii    : 6378.137, 6378.137, 6356.752 km {Equator_a, b, pole_c}       
Target primary  : Sun
Vis. interferer : MOON (R_eq= 1737.400) km        {source: DE441}
Rel. light bend : Sun                             {source: DE441}
Rel. lght bnd GM: 1.3271E+11 km^3/s^2                                          
Small-body perts: Yes                             {source: SB441-N16}
Atmos refraction: NO (AIRLESS)
RA format       : HMS
Time format     : CAL 
Calendar mode   : Mixed Julian/Gregorian
RTS-only print  : NO       
EOP file        : eop.250321.p250617                                           
EOP coverage    : DATA-BASED 1962-JAN-20 TO 2025-MAR-21. PREDICTS-> 2025-JUN-16
Units conversion: 1 au= 149597870.700 km, c= 299792.458 km/s, 1 day= 86400.0 s 
Table cut-offs 1: Elevation (-90.0deg=NO ),Airmass (>38.000=NO), Daylight (YES)
Table cut-offs 2: Solar elongation (  0.0,180.0=NO ),Local Hour Angle( 0.0=NO )
Table cut-offs 3: RA/DEC angular rate (     0.0=NO )                           
*******************************************************************************
Initial IAU76/J2000 heliocentric ecliptic osculating elements (au, days, deg.):
  EPOCH=  2458397.5 ! 2018-Oct-06.00 (TDB)         Residual RMS= .30565        
   EC= .4232280089037878   QR= .7951431742456924   TP= 2458457.9340165281      
   OM= 356.454891650426    W=  97.01949783285009   IN= 2.243887958983723       
  Equivalent ICRF heliocentric cartesian coordinates (au, au/d):
   X= 1.037748414669454E+00  Y= 2.036665248544260E-01  Z= 1.007134111375925E-01
  VX=-1.028941390482545E-02 VY= 1.387292408111162E-02 VZ= 6.642652492995660E-03
Asteroid physical parameters (km, seconds, rotational period in hours):        
   GM= n.a.                RAD= n.a.               ROTPER= n.a.                
   H= 25.7                 G= .150                 B-V= n.a.                   
                           ALBEDO= n.a.            STYP= n.a.                  
*******************************************************************************
 Date__(UT)__HR:MN     R.A._________(ICRF)_________DEC
******************************************************
$$SOE
 2018-Sep-04 12:56  m  00 39 40.217272 +02 43 08.30427
 2018-Sep-04 12:57  m  00 39 40.224047 +02 43 08.59797
 2018-Sep-04 12:58  m  00 39 40.230828 +02 43 08.89164
 2018-Sep-04 12:59  m  00 39 40.237616 +02 43 09.18530
 2018-Sep-04 13:00  m  00 39 40.244410 +02 43 09.47893
 2018-Sep-04 13:01  m  00 39 40.251211 +02 43 09.77254
 2018-Sep-04 13:02  m  00 39 40.258019 +02 43 10.06612
 2018-Sep-04 13:03  m  00 39 40.264835 +02 43 10.35969
 2018-Sep-04 13:04  m  00 39 40.271657 +02 43 10.65323
 2018-Sep-04 13:05  m  00 39 40.278487 +02 43 10.94675
 2018-Sep-04 13:06  m  00 39 40.285324 +02 43 11.24024
 2018-Sep-04 13:07  m  00 39 40.292170 +02 43 11.53372
 2018-Sep-04 13:08  m  00 39 40.299023 +02 43 11.82717
 2018-Sep-04 13:09  m  00 39 40.305884 +02 43 12.12060
 2018-Sep-04 13:10  m  00 39 40.312753 +02 43 12.41401
 2018-Sep-04 13:11  m  00 39 40.319631 +02 43 12.70739
 2018-Sep-04 13:12  m  00 39 40.326517 +02 43 13.00076
 2018-Sep-04 13:13  m  00 39 40.333412 +02 43 13.29410
 2018-Sep-04 13:14  m  00 39 40.340315 +02 43 13.58742
 2018-Sep-04 13:15  m  00 39 40.347228 +02 43 13.88072
 2018-Sep-04 13:16  m  00 39 40.354149 +02 43 14.17399
 2018-Sep-04 13:17  m  00 39 40.361080 +02 43 14.46725
 2018-Sep-04 13:18  m  00 39 40.368020 +02 43 14.76048
 2018-Sep-04 13:19  m  00 39 40.374970 +02 43 15.05369
 2018-Sep-04 13:20  m  00 39 40.381929 +02 43 15.34688
 2018-Sep-04 13:21  m  00 39 40.388899 +02 43 15.64004
 2018-Sep-04 13:22  m  00 39 40.395878 +02 43 15.93319
 2018-Sep-04 13:23  m  00 39 40.402867 +02 43 16.22631
 2018-Sep-04 13:24  m  00 39 40.409867 +02 43 16.51941
 2018-Sep-04 13:25  m  00 39 40.416877 +02 43 16.81249
 2018-Sep-04 13:26  m  00 39 40.423898 +02 43 17.10555
 2018-Sep-04 13:27  m  00 39 40.430929 +02 43 17.39859
 2018-Sep-04 13:28  m  00 39 40.437972 +02 43 17.69160
 2018-Sep-04 13:29  m  00 39 40.445025 +02 43 17.98459
 2018-Sep-04 13:30  m  00 39 40.452090 +02 43 18.27757
 2018-Sep-04 13:31  m  00 39 40.459166 +02 43 18.57052
 2018-Sep-04 13:32  m  00 39 40.466253 +02 43 18.86344
 2018-Sep-04 13:33  m  00 39 40.473352 +02 43 19.15635
 2018-Sep-04 13:34  m  00 39 40.480463 +02 43 19.44924
 2018-Sep-04 13:35  m  00 39 40.487586 +02 43 19.74210
 2018-Sep-04 13:36  m  00 39 40.494720 +02 43 20.03495
 2018-Sep-04 13:37  m  00 39 40.501867 +02 43 20.32777
 2018-Sep-04 13:38  m  00 39 40.509027 +02 43 20.62057
 2018-Sep-04 13:39  m  00 39 40.516199 +02 43 20.91335
 2018-Sep-04 13:40  m  00 39 40.523383 +02 43 21.20611
 2018-Sep-04 13:41  m  00 39 40.530580 +02 43 21.49885
 2018-Sep-04 13:42  m  00 39 40.537791 +02 43 21.79156
 2018-Sep-04 13:43  m  00 39 40.545014 +02 43 22.08426
 2018-Sep-04 13:44  m  00 39 40.552251 +02 43 22.37693
 2018-Sep-04 13:45  m  00 39 40.559501 +02 43 22.66959
 2018-Sep-04 13:46  m  00 39 40.566764 +02 43 22.96222
 2018-Sep-04 13:47  m  00 39 40.574041 +02 43 23.25483
 2018-Sep-04 13:48  m  00 39 40.581332 +02 43 23.54743
 2018-Sep-04 13:49  m  00 39 40.588637 +02 43 23.84000
 2018-Sep-04 13:50  m  00 39 40.595956 +02 43 24.13255
 2018-Sep-04 13:51  m  00 39 40.603289 +02 43 24.42508
 2018-Sep-04 13:52  m  00 39 40.610637 +02 43 24.71759
 2018-Sep-04 13:53  m  00 39 40.617999 +02 43 25.01008
 2018-Sep-04 13:54  m  00 39 40.625376 +02 43 25.30254
 2018-Sep-04 13:55  m  00 39 40.632767 +02 43 25.59499
 2018-Sep-04 13:56  m  00 39 40.640174 +02 43 25.88742
 2018-Sep-04 13:57  m  00 39 40.647596 +02 43 26.17983
 2018-Sep-04 13:58  m  00 39 40.655033 +02 43 26.47221
 2018-Sep-04 13:59  m  00 39 40.662485 +02 43 26.76458
 2018-Sep-04 14:00  m  00 39 40.669953 +02 43 27.05693
 2018-Sep-04 14:01  m  00 39 40.677436 +02 43 27.34925
 2018-Sep-04 14:02  m  00 39 40.684935 +02 43 27.64156
 2018-Sep-04 14:03  m  00 39 40.692450 +02 43 27.93385
 2018-Sep-04 14:04  m  00 39 40.699982 +02 43 28.22611
 2018-Sep-04 14:05  m  00 39 40.707529 +02 43 28.51836
 2018-Sep-04 14:06  m  00 39 40.715093 +02 43 28.81059
 2018-Sep-04 14:07  m  00 39 40.722673 +02 43 29.10279
 2018-Sep-04 14:08  m  00 39 40.730270 +02 43 29.39498
 2018-Sep-04 14:09  m  00 39 40.737883 +02 43 29.68715
 2018-Sep-04 14:10  m  00 39 40.745514 +02 43 29.97930
 2018-Sep-04 14:11  m  00 39 40.753161 +02 43 30.27143
 2018-Sep-04 14:12  m  00 39 40.760826 +02 43 30.56354
 2018-Sep-04 14:13  m  00 39 40.768508 +02 43 30.85563
 2018-Sep-04 14:14  m  00 39 40.776208 +02 43 31.14770
 2018-Sep-04 14:15  m  00 39 40.783925 +02 43 31.43975
 2018-Sep-04 14:16  m  00 39 40.791659 +02 43 31.73178
 2018-Sep-04 14:17  m  00 39 40.799412 +02 43 32.02379
 2018-Sep-04 14:18  m  00 39 40.807183 +02 43 32.31578
 2018-Sep-04 14:19  m  00 39 40.814971 +02 43 32.60776
 2018-Sep-04 14:20  m  00 39 40.822778 +02 43 32.89971
 2018-Sep-04 14:21  m  00 39 40.830603 +02 43 33.19165
 2018-Sep-04 14:22  m  00 39 40.838447 +02 43 33.48357
 2018-Sep-04 14:23  m  00 39 40.846310 +02 43 33.77547
 2018-Sep-04 14:24  m  00 39 40.854191 +02 43 34.06735
 2018-Sep-04 14:25  m  00 39 40.862091 +02 43 34.35921
 2018-Sep-04 14:26  m  00 39 40.870010 +02 43 34.65105
 2018-Sep-04 14:27  m  00 39 40.877948 +02 43 34.94287
 2018-Sep-04 14:28  m  00 39 40.885906 +02 43 35.23468
 2018-Sep-04 14:29  m  00 39 40.893883 +02 43 35.52646
 2018-Sep-04 14:30  m  00 39 40.901880 +02 43 35.81823
 2018-Sep-04 14:31  m  00 39 40.909896 +02 43 36.10998
 2018-Sep-04 14:32  m  00 39 40.917932 +02 43 36.40171
 2018-Sep-04 14:33  m  00 39 40.925988 +02 43 36.69343
 2018-Sep-04 14:34  m  00 39 40.934064 +02 43 36.98512
 2018-Sep-04 14:35  m  00 39 40.942161 +02 43 37.27680
 2018-Sep-04 14:36  m  00 39 40.950277 +02 43 37.56846
 2018-Sep-04 14:37  m  00 39 40.958415 +02 43 37.86010
 2018-Sep-04 14:38  m  00 39 40.966572 +02 43 38.15172
 2018-Sep-04 14:39  m  00 39 40.974751 +02 43 38.44333
 2018-Sep-04 14:40  m  00 39 40.982950 +02 43 38.73492
 2018-Sep-04 14:41  m  00 39 40.991170 +02 43 39.02649
 2018-Sep-04 14:42  m  00 39 40.999411 +02 43 39.31804
 2018-Sep-04 14:43  m  00 39 41.007674 +02 43 39.60958
 2018-Sep-04 14:44  m  00 39 41.015958 +02 43 39.90109
 2018-Sep-04 14:45  m  00 39 41.024263 +02 43 40.19259
 2018-Sep-04 14:46  m  00 39 41.032590 +02 43 40.48408
 2018-Sep-04 14:47  m  00 39 41.040939 +02 43 40.77554
 2018-Sep-04 14:48  m  00 39 41.049309 +02 43 41.06699
 2018-Sep-04 14:49  m  00 39 41.057701 +02 43 41.35842
 2018-Sep-04 14:50  m  00 39 41.066116 +02 43 41.64984
 2018-Sep-04 14:51  m  00 39 41.074552 +02 43 41.94124
 2018-Sep-04 14:52  m  00 39 41.083011 +02 43 42.23262
 2018-Sep-04 14:53 Am  00 39 41.091493 +02 43 42.52398
 2018-Sep-04 14:54 Am  00 39 41.099997 +02 43 42.81533
 2018-Sep-04 14:55 Am  00 39 41.108523 +02 43 43.10666
 2018-Sep-04 14:56 Am  00 39 41.117073 +02 43 43.39797
 2018-Sep-04 14:57 Am  00 39 41.125645 +02 43 43.68927
 2018-Sep-04 14:58 Am  00 39 41.134240 +02 43 43.98055
